[Satellite]
VERSION=1.1
NAME=IRIDIUM 134
NICKNAME=IRIDIUM 134
TLE1=1 43075U 17083F   22341.96679261  .00000217  00000+0  70508-4 0  9999
TLE2=2 43075  86.3968 140.0427 0001865  97.6151 262.5257 14.34217890259608
STATUS=0
